[{"OBJECT_NAME":"STARLINK-3090","OBJECT_ID":"2021-082C","EPOCH":"2026-03-09T23:20:36.632544","MEAN_MOTION":14.98331604,"ECCENTRICITY":0.0002969,"INCLINATION":69.9979,"RA_OF_ASC_NODE":293.6149,"ARG_OF_PERICENTER":269.9157,"MEAN_ANOMALY":90.1661,"EPHEMERIS_TYPE":0,"CLASSIFICATION_TYPE":"U","NORAD_CAT_ID":49132,"ELEMENT_SET_NO":999,"REV_AT_EPOCH":24602,"BSTAR":-3.614228e-5,"MEAN_MOTION_DOT":-5.24e-6,"MEAN_MOTION_DDOT":0},{"OBJECT_NAME":"FENGYUN 1C DEB","OBJECT_ID":"1999-025DCC","EPOCH":"2026-03-06T20:17:15.373248","MEAN_MOTION":14.96028569,"ECCENTRICITY":0.01060199,"INCLINATION":97.3493,"RA_OF_ASC_NODE":89.8611,"ARG_OF_PERICENTER":314.0813,"MEAN_ANOMALY":45.1717,"EPHEMERIS_TYPE":0,"CLASSIFICATION_TYPE":"U","NORAD_CAT_ID":32464,"ELEMENT_SET_NO":999,"REV_AT_EPOCH":62048,"BSTAR":0.0018930434,"MEAN_MOTION_DOT":0.00023806,"MEAN_MOTION_DDOT":0}]
